{
  "type": "FeatureCollection",
  "features": [
    {
      "type": "Feature",
      "properties": {
        "norad_id": 40376,
        "name": "SMAP",
        "group": "resource",
        "lat": 1.4254883266815506,
        "lon": -3.7377867335731287,
        "alt_km": 685.1441176392809,
        "timestamp": "2025-12-17T19:34:07.701977+00:00",
        "meta_object_name": "SMAP",
        "meta_object_id": "2015-003A",
        "meta_epoch": "2025-12-17T06:26:01.850208",
        "meta_mean_motion": 14.63350839,
        "meta_eccentricity": 0.0001216,
        "meta_inclination": 98.1289,
        "meta_ra_of_asc_node": 355.9266,
        "meta_arg_of_pericenter": 91.0876,
        "meta_mean_anomaly": 269.0466,
        "meta_ephemeris_type": 0,
        "meta_classification_type": "U",
        "meta_norad_cat_id": 40376,
        "meta_element_set_no": 999,
        "meta_rev_at_epoch": 58101,
        "meta_bstar": 0.0001028241,
        "meta_mean_motion_dot": 4.84e-06,
        "meta_mean_motion_ddot": 0,
        "tle_line1": "1 40376U 15003A   25351.26807697  .00000484  00000+0  10282-3 0  9991",
        "tle_line2": "2 40376  98.1289 355.9266 0001216  91.0876 269.0466 14.63350839581016"
      },
      "geometry": {
        "type": "Point",
        "coordinates": [
          -3.7377867335731287,
          1.4254883266815506
        ]
      }
    },
    {
      "type": "Feature",
      "properties": {
        "norad_id": 40536,
        "name": "KOMPSAT-3A",
        "group": "resource",
        "lat": 81.034805358589,
        "lon": -92.33864587135967,
        "alt_km": 423.4175312126199,
        "timestamp": "2025-12-17T19:34:07.701987+00:00",
        "meta_object_name": "KOMPSAT-3A",
        "meta_object_id": "2015-014A",
        "meta_epoch": "2025-12-17T08:18:48.871008",
        "meta_mean_motion": 15.44113669,
        "meta_eccentricity": 0.0005215,
        "meta_inclination": 97.6784,
        "meta_ra_of_asc_node": 325.9479,
        "meta_arg_of_pericenter": 116.5104,
        "meta_mean_anomaly": 243.6679,
        "meta_ephemeris_type": 0,
        "meta_classification_type": "U",
        "meta_norad_cat_id": 40536,
        "meta_element_set_no": 999,
        "meta_rev_at_epoch": 59366,
        "meta_bstar": 0.00036998864,
        "meta_mean_motion_dot": 0.00016857,
        "meta_mean_motion_ddot": 0,
        "tle_line1": "1 40536U 15014A   25351.34639897  .00016857  00000+0  36999-3 0  9999",
        "tle_line2": "2 40536  97.6784 325.9479 0005215 116.5104 243.6679 15.44113669593667"
      },
      "geometry": {
        "type": "Point",
        "coordinates": [
          -92.33864587135967,
          81.034805358589
        ]
      }
    },
    {
      "type": "Feature",
      "properties": {
        "norad_id": 40697,
        "name": "SENTINEL-2A",
        "group": "resource",
        "lat": -3.642364192050581,
        "lon": 64.8251790986393,
        "alt_km": 792.406862216284,
        "timestamp": "2025-12-17T19:34:07.701997+00:00",
        "meta_object_name": "SENTINEL-2A",
        "meta_object_id": "2015-028A",
        "meta_epoch": "2025-12-17T07:50:15.748224",
        "meta_mean_motion": 14.30815525,
        "meta_eccentricity": 0.00010437,
        "meta_inclination": 98.5691,
        "meta_ra_of_asc_node": 63.7935,
        "meta_arg_of_pericenter": 88.2546,
        "meta_mean_anomaly": 271.8757,
        "meta_ephemeris_type": 0,
        "meta_classification_type": "U",
        "meta_norad_cat_id": 40697,
        "meta_element_set_no": 999,
        "meta_rev_at_epoch": 54772,
        "meta_bstar": 9.8358151e-05,
        "meta_mean_motion_dot": 2.14e-06,
        "meta_mean_motion_ddot": 0,
        "tle_line1": "1 40697U 15028A   25351.32657116  .00000214  00000+0  98358-4 0  9992",
        "tle_line2": "2 40697  98.5691  63.7935 0001043  88.2546 271.8757 14.30815525547726"
      },
      "geometry": {
        "type": "Point",
        "coordinates": [
          64.8251790986393,
          -3.642364192050581
        ]
      }
    },
    {
      "type": "Feature",
      "properties": {
        "norad_id": 40701,
        "name": "GAOFEN-8",
        "group": "resource",
        "lat": -30.13441211787117,
        "lon": -14.295835667018805,
        "alt_km": 455.8590316076825,
        "timestamp": "2025-12-17T19:34:07.702008+00:00",
        "meta_object_name": "GAOFEN-8",
        "meta_object_id": "2015-030A",
        "meta_epoch": "2025-12-17T07:43:59.818368",
        "meta_mean_motion": 15.38700254,
        "meta_eccentricity": 0.00118474,
        "meta_inclination": 97.6898,
        "meta_ra_of_asc_node": 169.6857,
        "meta_arg_of_pericenter": 122.7413,
        "meta_mean_anomaly": 237.4975,
        "meta_ephemeris_type": 0,
        "meta_classification_type": "U",
        "meta_norad_cat_id": 40701,
        "meta_element_set_no": 999,
        "meta_rev_at_epoch": 58341,
        "meta_bstar": 0.00037584235,
        "meta_mean_motion_dot": 0.00014327,
        "meta_mean_motion_ddot": 0,
        "tle_line1": "1 40701U 15030A   25351.32222012  .00014327  00000+0  37584-3 0  9997",
        "tle_line2": "2 40701  97.6898 169.6857 0011847 122.7413 237.4975 15.38700254583417"
      },
      "geometry": {
        "type": "Point",
        "coordinates": [
          -14.295835667018805,
          -30.13441211787117
        ]
      }
    },
    {
      "type": "Feature",
      "properties": {
        "norad_id": 40718,
        "name": "CARBONITE 1 (CBNT-1)",
        "group": "resource",
        "lat": -22.027582178732967,
        "lon": -10.478095870355762,
        "alt_km": 617.8336496860256,
        "timestamp": "2025-12-17T19:34:07.702018+00:00",
        "meta_object_name": "CARBONITE 1 (CBNT-1)",
        "meta_object_id": "2015-032D",
        "meta_epoch": "2025-12-17T07:19:24.703392",
        "meta_mean_motion": 14.82763664,
        "meta_eccentricity": 0.00146956,
        "meta_inclination": 97.6398,
        "meta_ra_of_asc_node": 172.1474,
        "meta_arg_of_pericenter": 166.3642,
        "meta_mean_anomaly": 193.7972,
        "meta_ephemeris_type": 0,
        "meta_classification_type": "U",
        "meta_norad_cat_id": 40718,
        "meta_element_set_no": 999,
        "meta_rev_at_epoch": 56238,
        "meta_bstar": 0.00013075721,
        "meta_mean_motion_dot": 1.008e-05,
        "meta_mean_motion_ddot": 0,
        "tle_line1": "1 40718U 15032D   25351.30514703  .00001008  00000+0  13076-3 0  9998",
        "tle_line2": "2 40718  97.6398 172.1474 0014695 166.3642 193.7972 14.82763664562382"
      },
      "geometry": {
        "type": "Point",
        "coordinates": [
          -10.478095870355762,
          -22.027582178732967
        ]
      }
    },
    {
      "type": "Feature",
      "properties": {
        "norad_id": 40878,
        "name": "YAOGAN-27",
        "group": "resource",
        "lat": 76.29792751262119,
        "lon": -151.81787378382853,
        "alt_km": 1198.2464580732312,
        "timestamp": "2025-12-17T19:34:07.702028+00:00",
        "meta_object_name": "YAOGAN-27",
        "meta_object_id": "2015-040A",
        "meta_epoch": "2025-12-17T06:17:38.878656",
        "meta_mean_motion": 13.16061154,
        "meta_eccentricity": 0.00075846,
        "meta_inclination": 100.1008,
        "meta_ra_of_asc_node": 340.6778,
        "meta_arg_of_pericenter": 275.6586,
        "meta_mean_anomaly": 84.3663,
        "meta_ephemeris_type": 0,
        "meta_classification_type": "U",
        "meta_norad_cat_id": 40878,
        "meta_element_set_no": 999,
        "meta_rev_at_epoch": 49373,
        "meta_bstar": 0.00080183794,
        "meta_mean_motion_dot": 2.62e-06,
        "meta_mean_motion_ddot": 0,
        "tle_line1": "1 40878U 15040A   25351.26225554  .00000262  00000+0  80184-3 0  9997",
        "tle_line2": "2 40878 100.1008 340.6778 0007584 275.6586  84.3663 13.16061154493731"
      },
      "geometry": {
        "type": "Point",
        "coordinates": [
          -151.81787378382853,
          76.29792751262119
        ]
      }
    },
    {
      "type": "Feature",
      "properties": {
        "norad_id": 40894,
        "name": "GAOFEN-9 01",
        "group": "resource",
        "lat": 61.80938157020638,
        "lon": -134.918217460936,
        "alt_km": 618.7047392070117,
        "timestamp": "2025-12-17T19:34:07.702038+00:00",
        "meta_object_name": "GAOFEN-9 01",
        "meta_object_id": "2015-047A",
        "meta_epoch": "2025-12-17T07:42:15.735744",
        "meta_mean_motion": 14.82433792,
        "meta_eccentricity": 0.00280285,
        "meta_inclination": 97.6537,
        "meta_ra_of_asc_node": 30.0786,
        "meta_arg_of_pericenter": 19.6596,
        "meta_mean_anomaly": 340.5692,
        "meta_ephemeris_type": 0,
        "meta_classification_type": "U",
        "meta_norad_cat_id": 40894,
        "meta_element_set_no": 999,
        "meta_rev_at_epoch": 55324,
        "meta_bstar": 0.00013161748,
        "meta_mean_motion_dot": 1.011e-05,
        "meta_mean_motion_ddot": 0,
        "tle_line1": "1 40894U 15047A   25351.32101546  .00001011  00000+0  13162-3 0  9998",
        "tle_line2": "2 40894  97.6537  30.0786 0028028  19.6596 340.5692 14.82433792553245"
      },
      "geometry": {
        "type": "Point",
        "coordinates": [
          -134.918217460936,
          61.80938157020638
        ]
      }
    }
  ]
}